OBJECT_NAME,OBJECT_ID,EPOCH,MEAN_MOTION,ECCENTRICITY,INCLINATION,RA_OF_ASC_NODE,ARG_OF_PERICENTER,MEAN_ANOMALY,EPHEMERIS_TYPE,CLASSIFICATION_TYPE,NORAD_CAT_ID,ELEMENT_SET_NO,REV_AT_EPOCH,BSTAR,MEAN_MOTION_DOT,MEAN_MOTION_DDOT
STARLINK-11244 [DTC],2024-155C,2026-06-27T05:10:32.210976,15.69634849,.000098,53.1589,161.4051,111.2838,248.8285,0,U,60926,999,10565,-.60976E-4,-.7945E-4,0
STARLINK-11243 [DTC],2024-155D,2026-06-27T05:17:30.423264,15.69712165,.0000954,53.1590,161.4371,76.9178,283.1946,0,U,60927,999,10560,.10324E-4,.663E-5,0
STARLINK-11238 [DTC],2024-155E,2026-06-27T05:03:22.534272,15.69714281,.0000925,53.1594,161.3721,94.1276,265.9848,0,U,60928,999,10565,.59982E-5,.138E-5,0
STARLINK-11240 [DTC],2024-155F,2026-06-27T04:56:19.505184,15.69702989,.0000945,53.1582,161.3398,75.7577,284.3546,0,U,60929,999,10560,.22034E-4,.2081E-4,0
STARLINK-11251 [DTC],2024-155G,2026-06-27T04:49:15.060000,15.69708876,.0000644,53.1579,161.3064,75.9473,284.1617,0,U,60930,999,10560,.36345E-5,-.148E-5,0
STARLINK-11204 [DTC],2024-155H,2026-06-27T04:42:11.185056,15.69713154,.0000896,53.1566,161.2729,92.8840,267.2280,0,U,60931,999,10560,.18685E-4,.1676E-4,0
STARLINK-11246 [DTC],2024-155J,2026-06-27T04:35:07.224576,15.69713149,.000085,53.1579,161.2400,81.6866,278.4248,0,U,60932,999,10560,.68214E-5,.238E-5,0
STARLINK-11207 [DTC],2024-155K,2026-06-27T04:28:03.424800,15.69713626,.0000725,53.1574,161.2073,104.5018,255.6080,0,U,60933,999,10560,.10604E-4,.697E-5,0
STARLINK-11237 [DTC],2024-155L,2026-06-27T04:20:59.719200,15.69713447,.0000577,53.1561,161.1736,99.6189,260.4894,0,U,60934,999,10561,.20882E-4,.1943E-4,0
STARLINK-11253 [DTC],2024-155M,2026-06-27T05:38:42.504288,15.69702914,.000084,53.1592,161.5304,57.1397,302.9702,0,U,60935,999,10560,-.73378E-5,-.1477E-4,0
STARLINK-11241 [DTC],2024-155N,2026-06-27T05:31:38.426304,15.69702511,.0001199,53.1580,161.4996,50.4363,309.6760,0,U,60936,999,10560,.451E-5,-.42E-6,0
STARLINK-32259,2024-155P,2026-06-27T03:46:59.481696,15.34381441,.0000708,53.1611,341.0080,81.6949,278.4134,0,U,60937,999,10310,.10736E-4,-.13E-6,0
STARLINK-32262,2024-155Q,2026-06-27T04:00:03.000096,15.93232475,.0006796,53.1342,289.3892,345.4140,128.2016,0,U,60938,999,594,.11406E-2,.410883E-2,.76809E-4
STARLINK-32258,2024-155R,2026-06-27T03:49:53.849856,15.34384435,.0001367,53.1624,340.3138,85.0419,275.0740,0,U,60939,999,10306,.31157E-4,.676E-5,0
STARLINK-32251,2024-155S,2026-06-27T04:23:13.525152,15.34389800,.0001612,53.1621,340.4555,84.4769,275.6417,0,U,60940,999,10311,.73137E-4,.2095E-4,0
STARLINK-32224,2024-155T,2026-06-26T20:52:24.443040,15.34374190,.000048,53.1620,342.0536,66.3678,293.7375,0,U,60941,999,10307,.69341E-4,.1966E-4,0
STARLINK-32184,2024-155U,2026-06-27T03:55:58.103616,15.34372923,.0001154,53.1600,340.3429,78.4779,281.6353,0,U,60942,999,10306,-.33435E-5,-.489E-5,0
STARLINK-32288,2024-155V,2026-06-27T03:58:58.969056,15.34381296,.0001353,53.1625,340.3500,98.5338,261.5818,0,U,60943,999,10306,-.76191E-5,-.633E-5,0
STARLINK-32276,2024-155W,2026-06-27T03:28:48.271296,15.34388922,.0000962,53.1602,340.9252,115.0887,245.0216,0,U,60944,999,10315,.15387E-3,.4824E-4,0
STARLINK-11289 [DTC],2024-158B,2026-06-27T01:10:36.448608,15.69707755,.00011,53.1589,101.9531,58.4791,301.6334,0,U,60991,999,10477,-.55758E-5,-.1264E-4,0
STARLINK-11282 [DTC],2024-158C,2026-06-27T01:31:48.413856,15.69677292,.0001239,53.1592,102.0538,74.4422,285.6733,0,U,60992,999,10477,.37973E-4,.4008E-4,0
STARLINK-11283 [DTC],2024-158D,2026-06-27T00:49:33.661632,15.69705661,.0000739,53.1575,102.5895,56.9894,303.1194,0,U,60993,999,10476,.7697E-6,-.495E-5,0
STARLINK-11267 [DTC],2024-158E,2026-06-27T00:42:29.320128,15.69709959,.000059,53.1570,102.5605,75.9603,284.1480,0,U,60994,999,10476,.38697E-5,-.119E-5,0
STARLINK-11269 [DTC],2024-158F,2026-06-27T02:07:06.540960,15.69713978,.0000839,53.1595,102.2094,105.1616,254.9495,0,U,60995,999,10476,.64124E-5,.189E-5,0
STARLINK-11281 [DTC],2024-158G,2026-06-27T02:00:02.945952,15.69704097,.000098,53.1587,102.1749,110.9129,249.1994,0,U,60996,999,10476,.15077E-4,.1238E-4,0
STARLINK-11260 [DTC],2024-158H,2026-06-27T00:23:59.562240,15.69700460,.0000523,53.1582,80.1600,50.3656,309.7408,0,U,60997,999,10512,.32498E-5,-.194E-5,0
STARLINK-11287 [DTC],2024-158J,2026-06-27T01:52:59.914272,15.69690135,.0001101,53.1576,102.1465,42.5260,317.5843,0,U,60998,999,10476,.41309E-5,-.88E-6,0
STARLINK-11270 [DTC],2024-158K,2026-06-27T01:45:56.721024,15.69782797,.00011,53.1570,102.1116,82.5289,277.5853,0,U,60999,999,10476,.9271E-3,.113621E-2,0
STARLINK-11290 [DTC],2024-158L,2026-06-27T01:38:52.001952,15.69694450,.0001181,53.1590,102.0777,74.8159,285.2989,0,U,61000,999,10483,.10487E-4,.681E-5,0
STARLINK-11274 [DTC],2024-158M,2026-06-27T01:24:43.863264,15.69703730,.0000982,53.1587,102.0143,53.6209,306.4899,0,U,61001,999,10476,.1614E-5,-.393E-5,0
