STARLINK-11244 [DTC]    
1 60926U 24155C   26178.21565059 -.00007945  00000+0 -60976-4 0  9995
2 60926  53.1589 161.4051 0000980 111.2838 248.8285 15.69634849105654
STARLINK-11243 [DTC]    
1 60927U 24155D   26178.22049101  .00000663  00000+0  10324-4 0  9992
2 60927  53.1590 161.4371 0000954  76.9178 283.1946 15.69712165105606
STARLINK-11238 [DTC]    
1 60928U 24155E   26178.21067748  .00000138  00000+0  59982-5 0  9990
2 60928  53.1594 161.3721 0000925  94.1276 265.9848 15.69714281105653
STARLINK-11240 [DTC]    
1 60929U 24155F   26178.20578131  .00002081  00000+0  22034-4 0  9999
2 60929  53.1582 161.3398 0000945  75.7577 284.3546 15.69702989105609
STARLINK-11251 [DTC]    
1 60930U 24155G   26178.20086875 -.00000148  00000+0  36345-5 0  9994
2 60930  53.1579 161.3064 0000644  75.9473 284.1617 15.69708876105608
STARLINK-11204 [DTC]    
1 60931U 24155H   26178.19596279  .00001676  00000+0  18685-4 0  9999
2 60931  53.1566 161.2729 0000896  92.8840 267.2280 15.69713154105600
STARLINK-11246 [DTC]    
1 60932U 24155J   26178.19105584  .00000238  00000+0  68214-5 0  9992
2 60932  53.1579 161.2400 0000850  81.6866 278.4248 15.69713149105607
STARLINK-11207 [DTC]    
1 60933U 24155K   26178.18615075  .00000697  00000+0  10604-4 0  9991
2 60933  53.1574 161.2073 0000725 104.5018 255.6080 15.69713626105605
STARLINK-11237 [DTC]    
1 60934U 24155L   26178.18124675  .00001943  00000+0  20882-4 0  9997
2 60934  53.1561 161.1736 0000577  99.6189 260.4894 15.69713447105614
STARLINK-11253 [DTC]    
1 60935U 24155M   26178.23521417 -.00001477  00000+0 -73378-5 0  9992
2 60935  53.1592 161.5304 0000840  57.1397 302.9702 15.69702914105603
STARLINK-11241 [DTC]    
1 60936U 24155N   26178.23030586 -.00000042  00000+0  45100-5 0  9993
2 60936  53.1580 161.4996 0001199  50.4363 309.6760 15.69702511105605
STARLINK-32259          
1 60937U 24155P   26178.15763289 -.00000013  00000+0  10736-4 0  9992
2 60937  53.1611 341.0080 0000708  81.6949 278.4134 15.34381441103100
STARLINK-32262          
1 60938U 24155Q   26178.16670139  .00410883  76809-4  11406-2 0  9992
2 60938  53.1342 289.3892 0006796 345.4140 128.2016 15.93232475  5945
STARLINK-32258          
1 60939U 24155R   26178.15965104  .00000676  00000+0  31157-4 0  9998
2 60939  53.1624 340.3138 0001367  85.0419 275.0740 15.34384435103061
STARLINK-32251          
1 60940U 24155S   26178.18279543  .00002095  00000+0  73137-4 0  9999
2 60940  53.1621 340.4555 0001612  84.4769 275.6417 15.34389800103112
STARLINK-32224          
1 60941U 24155T   26177.86972735  .00001966  00000+0  69341-4 0  9995
2 60941  53.1620 342.0536 0000480  66.3678 293.7375 15.34374190103074
STARLINK-32184          
1 60942U 24155U   26178.16386694 -.00000489  00000+0 -33435-5 0  9990
2 60942  53.1600 340.3429 0001154  78.4779 281.6353 15.34372923103063
STARLINK-32288          
1 60943U 24155V   26178.16596029 -.00000633  00000+0 -76191-5 0  9993
2 60943  53.1625 340.3500 0001353  98.5338 261.5818 15.34381296103062
STARLINK-32276          
1 60944U 24155W   26178.14500314  .00004824  00000+0  15387-3 0  9996
2 60944  53.1602 340.9252 0000962 115.0887 245.0216 15.34388922103159
STARLINK-11289 [DTC]    
1 60991U 24158B   26178.04903297 -.00001264  00000+0 -55758-5 0  9992
2 60991  53.1589 101.9531 0001100  58.4791 301.6334 15.69707755104775
STARLINK-11282 [DTC]    
1 60992U 24158C   26178.06375479  .00004008  00000+0  37973-4 0  9995
2 60992  53.1592 102.0538 0001239  74.4422 285.6733 15.69677292104777
STARLINK-11283 [DTC]    
1 60993U 24158D   26178.03441738 -.00000495  00000+0  76970-6 0  9994
2 60993  53.1575 102.5895 0000739  56.9894 303.1194 15.69705661104760
STARLINK-11267 [DTC]    
1 60994U 24158E   26178.02950602 -.00000119  00000+0  38697-5 0  9995
2 60994  53.1570 102.5605 0000590  75.9603 284.1480 15.69709959104769
STARLINK-11269 [DTC]    
1 60995U 24158F   26178.08827015  .00000189  00000+0  64124-5 0  9993
2 60995  53.1595 102.2094 0000839 105.1616 254.9495 15.69713978104769
STARLINK-11281 [DTC]    
1 60996U 24158G   26178.08336743  .00001238  00000+0  15077-4 0  9995
2 60996  53.1587 102.1749 0000980 110.9129 249.1994 15.69704097104769
STARLINK-11260 [DTC]    
1 60997U 24158H   26178.01666160 -.00000194  00000+0  32498-5 0  9996
2 60997  53.1582  80.1600 0000523  50.3656 309.7408 15.69700460105125
STARLINK-11287 [DTC]    
1 60998U 24158J   26178.07847123 -.00000088  00000+0  41309-5 0  9996
2 60998  53.1576 102.1465 0001101  42.5260 317.5843 15.69690135104766
STARLINK-11270 [DTC]    
1 60999U 24158K   26178.07357316  .00113621  00000+0  92710-3 0  9994
2 60999  53.1570 102.1116 0001100  82.5289 277.5853 15.69782797104760
STARLINK-11290 [DTC]    
1 61000U 24158L   26178.06865743  .00000681  00000+0  10487-4 0  9998
2 61000  53.1590 102.0777 0001181  74.8159 285.2989 15.69694450104839
STARLINK-11274 [DTC]    
1 61001U 24158M   26178.05884101 -.00000393  00000+0  16140-5 0  9991
2 61001  53.1587 102.0143 0000982  53.6209 306.4899 15.69703730104762
